<?xml version="1.0" encoding="UTF-8"?>
<kml xmlns="http://www.opengis.net/kml/2.2" xmlns:gx="http://www.google.com/kml/ext/2.2" xmlns:kml="http://www.opengis.net/kml/2.2" xmlns:atom="http://www.w3.org/2005/Atom">
<Document>
	<name>places</name>
	<gx:CascadingStyle kml:id="__managed_style_5DF850A701365DD391E7">
		<Style>
			<IconStyle>
				<scale>1.2</scale>
				<Icon>
					<href>https://earth.google.com/earth/document/icon?color=fbc02d&amp;id=2000&amp;scale=4</href>
				</Icon>
				<hotSpot x="64" y="128" xunits="pixels" yunits="insetPixels"/>
			</IconStyle>
			<LabelStyle>
			</LabelStyle>
			<LineStyle>
				<color>ff2dc0fb</color>
				<width>6</width>
			</LineStyle>
			<PolyStyle>
				<color>40ffffff</color>
			</PolyStyle>
			<BalloonStyle>
				<gx:displayMode>card</gx:displayMode>
			</BalloonStyle>
		</Style>
	</gx:CascadingStyle>
	<StyleMap id="__managed_style_32C2E93E7E365DD391E7">
		<Pair>
			<key>normal</key>
			<styleUrl>#__managed_style_48168A9328365DD391E7</styleUrl>
		</Pair>
		<Pair>
			<key>highlight</key>
			<styleUrl>#__managed_style_5DF850A701365DD391E7</styleUrl>
		</Pair>
	</StyleMap>
	<gx:CascadingStyle kml:id="__managed_style_2FA794B10F365DD239D3">
		<Style>
			<IconStyle>
				<scale>1.2</scale>
				<Icon>
					<href>https://earth.google.com/earth/document/icon?color=1976d2&amp;id=2000&amp;scale=4</href>
				</Icon>
				<hotSpot x="64" y="128" xunits="pixels" yunits="insetPixels"/>
			</IconStyle>
			<LabelStyle>
			</LabelStyle>
			<LineStyle>
				<color>ff2dc0fb</color>
				<width>6</width>
			</LineStyle>
			<PolyStyle>
				<color>40ffffff</color>
			</PolyStyle>
			<BalloonStyle>
				<displayMode>hide</displayMode>
			</BalloonStyle>
		</Style>
	</gx:CascadingStyle>
	<gx:CascadingStyle kml:id="__managed_style_48168A9328365DD391E7">
		<Style>
			<IconStyle>
				<Icon>
					<href>https://earth.google.com/earth/document/icon?color=fbc02d&amp;id=2000&amp;scale=4</href>
				</Icon>
				<hotSpot x="64" y="128" xunits="pixels" yunits="insetPixels"/>
			</IconStyle>
			<LabelStyle>
			</LabelStyle>
			<LineStyle>
				<color>ff2dc0fb</color>
				<width>4</width>
			</LineStyle>
			<PolyStyle>
				<color>40ffffff</color>
			</PolyStyle>
			<BalloonStyle>
				<gx:displayMode>card</gx:displayMode>
			</BalloonStyle>
		</Style>
	</gx:CascadingStyle>
	<gx:CascadingStyle kml:id="__managed_style_15F5F0E6EF365DD239D3">
		<Style>
			<IconStyle>
				<Icon>
					<href>https://earth.google.com/earth/document/icon?color=1976d2&amp;id=2000&amp;scale=4</href>
				</Icon>
				<hotSpot x="64" y="128" xunits="pixels" yunits="insetPixels"/>
			</IconStyle>
			<LabelStyle>
			</LabelStyle>
			<LineStyle>
				<color>ff2dc0fb</color>
				<width>4</width>
			</LineStyle>
			<PolyStyle>
				<color>40ffffff</color>
			</PolyStyle>
			<BalloonStyle>
				<displayMode>hide</displayMode>
			</BalloonStyle>
		</Style>
	</gx:CascadingStyle>
	<StyleMap id="__managed_style_0D5827E318365DD239D3">
		<Pair>
			<key>normal</key>
			<styleUrl>#__managed_style_15F5F0E6EF365DD239D3</styleUrl>
		</Pair>
		<Pair>
			<key>highlight</key>
			<styleUrl>#__managed_style_2FA794B10F365DD239D3</styleUrl>
		</Pair>
	</StyleMap>
	<Folder id="0F876C8C3E365DD29CF3">
		<name>Novmber</name>
		<open>1</open>
		<styleUrl>#__managed_style_0D5827E318365DD239D3</styleUrl>
		<Placemark id="0BA12A841B365DD239CE">
			<name>Martinsart Wood</name>
			<LookAt>
				<longitude>2.65496901909031</longitude>
				<latitude>50.03816571372607</latitude>
				<altitude>91.17102545693737</altitude>
				<heading>0</heading>
				<tilt>0</tilt>
				<gx:fovy>35</gx:fovy>
				<range>6276.872906730277</range>
				<altitudeMode>absolute</altitudeMode>
			</LookAt>
			<styleUrl>#__managed_style_0D5827E318365DD239D3</styleUrl>
			<Point>
				<coordinates>2.651209953235658,50.0400970650191,119.7589131513982</coordinates>
			</Point>
		</Placemark>
		<Placemark id="00FCCD78F8365DD391E4">
			<name>Aveluy</name>
			<gx:mid>/m/03hgt08</gx:mid>
			<gx:fid>0x47dd58d2303f46ef:0xc6453a0e07293008</gx:fid>
			<LookAt>
				<longitude>2.66468915</longitude>
				<latitude>50.03336024999999</latitude>
				<altitude>0</altitude>
				<heading>0</heading>
				<tilt>0</tilt>
				<gx:fovy>35</gx:fovy>
				<range>7466.260465218722</range>
				<altitudeMode>relativeToGround</altitudeMode>
			</LookAt>
			<styleUrl>#__managed_style_32C2E93E7E365DD391E7</styleUrl>
			<Point>
				<altitudeMode>relativeToGround</altitudeMode>
				<coordinates>2.6595019,50.023618,0</coordinates>
			</Point>
		</Placemark>
		<Placemark id="0FE468CD06365DD41574">
			<name>Senlis-le-Sec</name>
			<gx:mid>/m/03qmpvg</gx:mid>
			<gx:fid>0x47dd5fc627e50405:0xf1983a1f183d0e73</gx:fid>
			<LookAt>
				<longitude>2.57630465</longitude>
				<latitude>50.02829255</latitude>
				<altitude>0</altitude>
				<heading>0</heading>
				<tilt>0</tilt>
				<gx:fovy>35</gx:fovy>
				<range>7467.048372947741</range>
				<altitudeMode>relativeToGround</altitudeMode>
			</LookAt>
			<styleUrl>#__managed_style_32C2E93E7E365DD391E7</styleUrl>
			<Point>
				<altitudeMode>relativeToGround</altitudeMode>
				<coordinates>2.5780409,50.025574,0</coordinates>
			</Point>
		</Placemark>
		<Folder id="0EB5589650365DD466DC">
			<name>September</name>
			<open>1</open>
			<styleUrl>#__managed_style_0D5827E318365DD239D3</styleUrl>
			<Placemark id="06AF42D6FB365DD4D799">
				<name>Mailly-Maillet</name>
				<gx:mid>/m/03qmpxj</gx:mid>
				<gx:fid>0x47dd5dd07a1eab25:0x40af13e81620490</gx:fid>
				<LookAt>
					<longitude>2.60149375</longitude>
					<latitude>50.0800352</latitude>
					<altitude>0</altitude>
					<heading>0</heading>
					<tilt>0</tilt>
					<gx:fovy>35</gx:fovy>
					<range>14918.0017333031</range>
					<altitudeMode>relativeToGround</altitudeMode>
				</LookAt>
				<styleUrl>#__managed_style_32C2E93E7E365DD391E7</styleUrl>
				<Point>
					<altitudeMode>relativeToGround</altitudeMode>
					<coordinates>2.604942,50.077367,0</coordinates>
				</Point>
			</Placemark>
			<Placemark id="00C6D02E3B365DD6A864">
				<name>Beaussart</name>
				<gx:mid>/g/1tctqyvy</gx:mid>
				<gx:fid>0x47dd5de5899a0a9d:0xa0af141326a0e60</gx:fid>
				<LookAt>
					<longitude>2.580585</longitude>
					<latitude>50.08266045</latitude>
					<altitude>0</altitude>
					<heading>0</heading>
					<tilt>0</tilt>
					<gx:fovy>35</gx:fovy>
					<range>3221.208577240624</range>
					<altitudeMode>relativeToGround</altitudeMode>
				</LookAt>
				<styleUrl>#__managed_style_32C2E93E7E365DD391E7</styleUrl>
				<Point>
					<altitudeMode>relativeToGround</altitudeMode>
					<coordinates>2.580585,50.08266099999999,0</coordinates>
				</Point>
			</Placemark>
			<Placemark id="0E87E17943365DD7BD34">
				<name>Bertrancourt</name>
				<gx:mid>/m/03m73g1</gx:mid>
				<gx:fid>0x47dd6762f928c85f:0x40af13e81621c70</gx:fid>
				<LookAt>
					<longitude>2.56511745</longitude>
					<latitude>50.10137934999999</latitude>
					<altitude>0</altitude>
					<heading>0</heading>
					<tilt>0</tilt>
					<gx:fovy>35</gx:fovy>
					<range>7455.679449959027</range>
					<altitudeMode>relativeToGround</altitudeMode>
				</LookAt>
				<styleUrl>#__managed_style_32C2E93E7E365DD391E7</styleUrl>
				<Point>
					<altitudeMode>relativeToGround</altitudeMode>
					<coordinates>2.558537,50.093663,0</coordinates>
				</Point>
			</Placemark>
			<Placemark id="046DED8FF0365DD869B8">
				<name>Mailly Wood</name>
				<LookAt>
					<longitude>2.599841111605705</longitude>
					<latitude>50.07516678242132</latitude>
					<altitude>138.5098414460232</altitude>
					<heading>0</heading>
					<tilt>0</tilt>
					<gx:fovy>34.99997110523271</gx:fovy>
					<range>3468.376811662456</range>
					<altitudeMode>absolute</altitudeMode>
				</LookAt>
				<styleUrl>#__managed_style_0D5827E318365DD239D3</styleUrl>
				<Point>
					<coordinates>2.596601424951281,50.07461091140036,143.7821597392031</coordinates>
				</Point>
			</Placemark>
		</Folder>
	</Folder>
	<Placemark id="0D63D037AB365DD90850">
		<name>Bois de Warnimont</name>
		<gx:mid>/g/12hkj_wr3</gx:mid>
		<gx:fid>0x47dd665816c9a327:0xc32b3ff439652be9</gx:fid>
		<LookAt>
			<longitude>2.5090659</longitude>
			<latitude>50.1160395</latitude>
			<altitude>0</altitude>
			<heading>0</heading>
			<tilt>0</tilt>
			<gx:fovy>35</gx:fovy>
			<range>3218.384240407724</range>
			<altitudeMode>relativeToGround</altitudeMode>
		</LookAt>
		<styleUrl>#__managed_style_32C2E93E7E365DD391E7</styleUrl>
		<Point>
			<altitudeMode>relativeToGround</altitudeMode>
			<coordinates>2.5090659,50.11604,0</coordinates>
		</Point>
	</Placemark>
	<Placemark id="0706504A70365DD995F9">
		<name>Thièvres</name>
		<gx:mid>/m/03by5wd</gx:mid>
		<gx:fid>0x47dd65be941555b7:0x40af13e8163d2d0</gx:fid>
		<LookAt>
			<longitude>2.447906699999999</longitude>
			<latitude>50.1333394</latitude>
			<altitude>0</altitude>
			<heading>0</heading>
			<tilt>0</tilt>
			<gx:fovy>35</gx:fovy>
			<range>3216.920203201752</range>
			<altitudeMode>relativeToGround</altitudeMode>
		</LookAt>
		<styleUrl>#__managed_style_32C2E93E7E365DD391E7</styleUrl>
		<Point>
			<altitudeMode>relativeToGround</altitudeMode>
			<coordinates>2.454415,50.12796900000001,0</coordinates>
		</Point>
	</Placemark>
	<Placemark id="0A281D04ED365DD9D436">
		<name>Orville</name>
		<gx:mid>/m/02z7w21</gx:mid>
		<gx:fid>0x47dd650f7b2786cd:0x40af13e8163dd90</gx:fid>
		<LookAt>
			<longitude>2.42059375</longitude>
			<latitude>50.12774165</latitude>
			<altitude>0</altitude>
			<heading>0</heading>
			<tilt>0</tilt>
			<gx:fovy>35</gx:fovy>
			<range>14903.15143653779</range>
			<altitudeMode>relativeToGround</altitudeMode>
		</LookAt>
		<styleUrl>#__managed_style_32C2E93E7E365DD391E7</styleUrl>
		<Point>
			<altitudeMode>relativeToGround</altitudeMode>
			<coordinates>2.409492,50.134458,0</coordinates>
		</Point>
	</Placemark>
	<Placemark id="0F182496D4365DDA7115">
		<name>Lucheux</name>
		<gx:mid>/m/0fb_7_</gx:mid>
		<gx:fid>0x47dd6e53e1c97d13:0x40af13e816204c0</gx:fid>
		<LookAt>
			<longitude>2.42867485</longitude>
			<latitude>50.20398175</latitude>
			<altitude>0</altitude>
			<heading>0</heading>
			<tilt>0</tilt>
			<gx:fovy>35</gx:fovy>
			<range>14879.39760042382</range>
			<altitudeMode>relativeToGround</altitudeMode>
		</LookAt>
		<styleUrl>#__managed_style_32C2E93E7E365DD391E7</styleUrl>
		<Point>
			<altitudeMode>relativeToGround</altitudeMode>
			<coordinates>2.412337,50.197258,0</coordinates>
		</Point>
	</Placemark>
	<Placemark id="092607526D365DDAF40C">
		<name>Halloy</name>
		<gx:mid>/m/02z47js</gx:mid>
		<gx:fid>0x47dd657c3bb85595:0xd26b4779bf7ed083</gx:fid>
		<LookAt>
			<longitude>2.42561175</longitude>
			<latitude>50.16132854999999</latitude>
			<altitude>0</altitude>
			<heading>0</heading>
			<tilt>0</tilt>
			<gx:fovy>35</gx:fovy>
			<range>7446.345071994865</range>
			<altitudeMode>relativeToGround</altitudeMode>
		</LookAt>
		<styleUrl>#__managed_style_32C2E93E7E365DD391E7</styleUrl>
		<Point>
			<altitudeMode>relativeToGround</altitudeMode>
			<coordinates>2.425145,50.157856,0</coordinates>
		</Point>
	</Placemark>
	<Placemark id="043410B79F365DDB55AD">
		<name>Le Souich</name>
		<gx:mid>/m/02z9b3g</gx:mid>
		<gx:fid>0x47dd719569f0ae9b:0xd0cfe236eb394d79</gx:fid>
		<LookAt>
			<longitude>2.35929095</longitude>
			<latitude>50.22118195</latitude>
			<altitude>0</altitude>
			<heading>0</heading>
			<tilt>0</tilt>
			<gx:fovy>35</gx:fovy>
			<range>7437.017478066174</range>
			<altitudeMode>relativeToGround</altitudeMode>
		</LookAt>
		<styleUrl>#__managed_style_32C2E93E7E365DD391E7</styleUrl>
		<Point>
			<altitudeMode>relativeToGround</altitudeMode>
			<coordinates>2.366882,50.22193099999999,0</coordinates>
		</Point>
	</Placemark>
	<Placemark id="044FF70ED5365DDB9E0E">
		<name>Ligny-Saint-Flochel</name>
		<gx:mid>/m/02z7gcz</gx:mid>
		<gx:fid>0x47dd128b44bac443:0x40af13e8163e570</gx:fid>
		<LookAt>
			<longitude>2.42438875</longitude>
			<latitude>50.35991435</latitude>
			<altitude>0</altitude>
			<heading>0</heading>
			<tilt>0</tilt>
			<gx:fovy>35</gx:fovy>
			<range>7415.366138351344</range>
			<altitudeMode>relativeToGround</altitudeMode>
		</LookAt>
		<styleUrl>#__managed_style_32C2E93E7E365DD391E7</styleUrl>
		<Point>
			<altitudeMode>relativeToGround</altitudeMode>
			<coordinates>2.428203,50.35889,0</coordinates>
		</Point>
	</Placemark>
	<Placemark id="0E7402CBDD365DDC197E">
		<name>Bois des Herombus</name>
		<gx:mid>/g/12hm2gj9t</gx:mid>
		<gx:fid>0x47dd13176385b497:0x816cfe24f29b4e7</gx:fid>
		<LookAt>
			<longitude>2.459888</longitude>
			<latitude>50.34629945</latitude>
			<altitude>0</altitude>
			<heading>0</heading>
			<tilt>0</tilt>
			<gx:fovy>35</gx:fovy>
			<range>3198.885731165098</range>
			<altitudeMode>relativeToGround</altitudeMode>
		</LookAt>
		<styleUrl>#__managed_style_32C2E93E7E365DD391E7</styleUrl>
		<Point>
			<altitudeMode>relativeToGround</altitudeMode>
			<coordinates>2.459888,50.3463,0</coordinates>
		</Point>
	</Placemark>
	<Placemark id="02FE6D7216365DDCC6BA">
		<name>Monchy-Breton</name>
		<gx:mid>/m/02z7pjr</gx:mid>
		<gx:fid>0x47dd12239ad30f95:0x40af13e8163e150</gx:fid>
		<LookAt>
			<longitude>2.43493145</longitude>
			<latitude>50.39794195</latitude>
			<altitude>0</altitude>
			<heading>0</heading>
			<tilt>0</tilt>
			<gx:fovy>35</gx:fovy>
			<range>7409.423745310814</range>
			<altitudeMode>relativeToGround</altitudeMode>
		</LookAt>
		<styleUrl>#__managed_style_32C2E93E7E365DD391E7</styleUrl>
		<Point>
			<altitudeMode>relativeToGround</altitudeMode>
			<coordinates>2.4449139,50.40046699999999,0</coordinates>
		</Point>
	</Placemark>
	<Placemark id="001F116311365DDD31FA">
		<name>Magnicourt-en-Comte</name>
		<gx:mid>/m/02z7k6x</gx:mid>
		<gx:fid>0x47dd13e19059b65d:0x40af13e8163e410</gx:fid>
		<LookAt>
			<longitude>2.48151955</longitude>
			<latitude>50.40264335</latitude>
			<altitude>0</altitude>
			<heading>0</heading>
			<tilt>0</tilt>
			<gx:fovy>35</gx:fovy>
			<range>7408.688853030779</range>
			<altitudeMode>relativeToGround</altitudeMode>
		</LookAt>
		<styleUrl>#__managed_style_32C2E93E7E365DD391E7</styleUrl>
		<Point>
			<altitudeMode>relativeToGround</altitudeMode>
			<coordinates>2.489083,50.402035,0</coordinates>
		</Point>
	</Placemark>
	<Placemark id="00B4128CBD365DDE1F65">
		<name>Ourton</name>
		<gx:mid>/m/02z7w76</gx:mid>
		<gx:fid>0x47dd10e55db5036f:0x40af13e8163dd70</gx:fid>
		<LookAt>
			<longitude>2.4705435</longitude>
			<latitude>50.45593229999999</latitude>
			<altitude>0</altitude>
			<heading>0</heading>
			<tilt>0</tilt>
			<gx:fovy>35</gx:fovy>
			<range>7400.355584980743</range>
			<altitudeMode>relativeToGround</altitudeMode>
		</LookAt>
		<styleUrl>#__managed_style_32C2E93E7E365DD391E7</styleUrl>
		<Point>
			<altitudeMode>relativeToGround</altitudeMode>
			<coordinates>2.470597,50.45593489999999,0</coordinates>
		</Point>
	</Placemark>
	<Placemark id="086D10CD9F365DDE694E">
		<name>La Comté</name>
		<gx:mid>/m/02z35jf</gx:mid>
		<gx:fid>0x47dd1134583f1a0f:0x40af13e8163f6b0</gx:fid>
		<LookAt>
			<longitude>2.49963195</longitude>
			<latitude>50.42850499999999</latitude>
			<altitude>0</altitude>
			<heading>0</heading>
			<tilt>0</tilt>
			<gx:fovy>35</gx:fovy>
			<range>7404.645436279159</range>
			<altitudeMode>relativeToGround</altitudeMode>
		</LookAt>
		<styleUrl>#__managed_style_32C2E93E7E365DD391E7</styleUrl>
		<Point>
			<altitudeMode>relativeToGround</altitudeMode>
			<coordinates>2.495387,50.428496,0</coordinates>
		</Point>
	</Placemark>
	<Placemark id="06D16152B6365DDF1EB1">
		<name>Bois du Hazois</name>
		<gx:mid>/g/12hr4r6mk</gx:mid>
		<gx:fid>0x47dd10d754642591:0xae3be372763ad363</gx:fid>
		<LookAt>
			<longitude>2.492772</longitude>
			<latitude>50.4505255</latitude>
			<altitude>0</altitude>
			<heading>0</heading>
			<tilt>0</tilt>
			<gx:fovy>35</gx:fovy>
			<range>3190.05117308395</range>
			<altitudeMode>relativeToGround</altitudeMode>
		</LookAt>
		<styleUrl>#__managed_style_32C2E93E7E365DD391E7</styleUrl>
		<Point>
			<altitudeMode>relativeToGround</altitudeMode>
			<coordinates>2.492772,50.450526,0</coordinates>
		</Point>
	</Placemark>
	<Placemark id="0218CDED3D365DDF9B4A">
		<name>Allouagne</name>
		<gx:mid>/m/02x80j7</gx:mid>
		<gx:fid>0x47dd1bd1163cbd5d:0x40af13e81640390</gx:fid>
		<LookAt>
			<longitude>2.504657</longitude>
			<latitude>50.5349894</latitude>
			<altitude>0</altitude>
			<heading>0</heading>
			<tilt>0</tilt>
			<gx:fovy>35</gx:fovy>
			<range>7387.980930666137</range>
			<altitudeMode>relativeToGround</altitudeMode>
		</LookAt>
		<styleUrl>#__managed_style_32C2E93E7E365DD391E7</styleUrl>
		<Point>
			<altitudeMode>relativeToGround</altitudeMode>
			<coordinates>2.5073065,50.53055439999999,0</coordinates>
		</Point>
	</Placemark>
	<Placemark id="0CC8B40C79365DE09BB2">
		<name>Gorre British &amp; Indian Cemetery, Pas De Calais</name>
		<gx:mid>/g/1230v91z</gx:mid>
		<gx:fid>0x47dd238bdcc32937:0xfa2ddd99f8d7cc06</gx:fid>
		<LookAt>
			<longitude>2.6998546</longitude>
			<latitude>50.54040149999999</latitude>
			<altitude>0</altitude>
			<heading>0</heading>
			<tilt>0</tilt>
			<gx:fovy>35</gx:fovy>
			<range>642.1297909720749</range>
			<altitudeMode>relativeToGround</altitudeMode>
		</LookAt>
		<styleUrl>#__managed_style_32C2E93E7E365DD391E7</styleUrl>
		<Point>
			<altitudeMode>relativeToGround</altitudeMode>
			<coordinates>2.6998546,50.54040149999999,0</coordinates>
		</Point>
	</Placemark>
	<Placemark id="0CB01BDC73365DE10803">
		<name>Béthune</name>
		<gx:mid>/m/0145v_</gx:mid>
		<gx:fid>0x47dd2259039319ff:0xc2f9dc5f81c67d18</gx:fid>
		<LookAt>
			<longitude>2.64379425</longitude>
			<latitude>50.5299436</latitude>
			<altitude>0</altitude>
			<heading>0</heading>
			<tilt>0</tilt>
			<gx:fovy>35</gx:fovy>
			<range>7388.771160411404</range>
			<altitudeMode>relativeToGround</altitudeMode>
		</LookAt>
		<styleUrl>#__managed_style_32C2E93E7E365DD391E7</styleUrl>
		<Point>
			<altitudeMode>relativeToGround</altitudeMode>
			<coordinates>2.63926,50.53103600000001,0</coordinates>
		</Point>
	</Placemark>
	<Placemark id="017F704E9E365DE14845">
		<name>Chocques</name>
		<gx:mid>/m/02x855s</gx:mid>
		<gx:fid>0x47dd18e25de18891:0x40af13e8163f730</gx:fid>
		<LookAt>
			<longitude>2.5616374</longitude>
			<latitude>50.53999014999999</latitude>
			<altitude>0</altitude>
			<heading>0</heading>
			<tilt>0</tilt>
			<gx:fovy>35</gx:fovy>
			<range>7387.19769973084</range>
			<altitudeMode>relativeToGround</altitudeMode>
		</LookAt>
		<styleUrl>#__managed_style_32C2E93E7E365DD391E7</styleUrl>
		<Point>
			<altitudeMode>relativeToGround</altitudeMode>
			<coordinates>2.572459,50.539579,0</coordinates>
		</Point>
	</Placemark>
	<Placemark id="0A1A8825F2365DE2A03B">
		<name>Le Plantin</name>
		<gx:mid>/g/1tff6x0b</gx:mid>
		<gx:fid>0x47dd1b6241a145bf:0x7c5f8539c179cb0c</gx:fid>
		<LookAt>
			<longitude>2.451038</longitude>
			<latitude>50.56924644999999</latitude>
			<altitude>0</altitude>
			<heading>0</heading>
			<tilt>0</tilt>
			<gx:fovy>35</gx:fovy>
			<range>3179.981523396627</range>
			<altitudeMode>relativeToGround</altitudeMode>
		</LookAt>
		<styleUrl>#__managed_style_32C2E93E7E365DD391E7</styleUrl>
		<Point>
			<altitudeMode>relativeToGround</altitudeMode>
			<coordinates>2.451038,50.569247,0</coordinates>
		</Point>
	</Placemark>
	<Placemark id="04B4F66480365DE31785">
		<name>Les Choquaux</name>
		<gx:mid>/g/1tf64rqs</gx:mid>
		<gx:fid>0x47dd2228469b22f5:0xff2282d41337e556</gx:fid>
		<LookAt>
			<longitude>2.648182</longitude>
			<latitude>50.56478949999999</latitude>
			<altitude>0</altitude>
			<heading>0</heading>
			<tilt>0</tilt>
			<gx:fovy>35</gx:fovy>
			<range>3180.359675199111</range>
			<altitudeMode>relativeToGround</altitudeMode>
		</LookAt>
		<styleUrl>#__managed_style_32C2E93E7E365DD391E7</styleUrl>
		<Point>
			<altitudeMode>relativeToGround</altitudeMode>
			<coordinates>2.648182,50.56479,0</coordinates>
		</Point>
	</Placemark>
	<Placemark id="07D1CB600F365DE36069">
		<name>Festubert</name>
		<gx:mid>/m/02z3qg6</gx:mid>
		<gx:fid>0x47dd244630ce6c8d:0x2a13129b0b35cf5c</gx:fid>
		<LookAt>
			<longitude>2.73845955</longitude>
			<latitude>50.5415538</latitude>
			<altitude>0</altitude>
			<heading>0</heading>
			<tilt>0</tilt>
			<gx:fovy>35</gx:fovy>
			<range>7386.952785106769</range>
			<altitudeMode>relativeToGround</altitudeMode>
		</LookAt>
		<styleUrl>#__managed_style_32C2E93E7E365DD391E7</styleUrl>
		<Point>
			<altitudeMode>relativeToGround</altitudeMode>
			<coordinates>2.73832,50.54156289999999,0</coordinates>
		</Point>
	</Placemark>
	<Placemark id="007D48A8AA365DE5131E">
		<name>Givenchy-lès-la-Bassée</name>
		<gx:mid>/m/02z405n</gx:mid>
		<gx:fid>0x47dd25aef52a7bdd:0x12c385acce707d93</gx:fid>
		<LookAt>
			<longitude>2.762822799999999</longitude>
			<latitude>50.53484754999999</latitude>
			<altitude>0</altitude>
			<heading>0</heading>
			<tilt>0</tilt>
			<gx:fovy>35</gx:fovy>
			<range>7388.003146774414</range>
			<altitudeMode>relativeToGround</altitudeMode>
		</LookAt>
		<styleUrl>#__managed_style_32C2E93E7E365DD391E7</styleUrl>
		<Point>
			<altitudeMode>relativeToGround</altitudeMode>
			<coordinates>2.757389,50.528941,0</coordinates>
		</Point>
	</Placemark>
	<Placemark id="076E44A3BC365DE5A878">
		<name>La Bassée</name>
		<gx:mid>/m/02w962b</gx:mid>
		<gx:fid>0x47dd2f66333ff44b:0x40af13e816475d0</gx:fid>
		<LookAt>
			<longitude>2.8102757</longitude>
			<latitude>50.5392753</latitude>
			<altitude>0</altitude>
			<heading>0</heading>
			<tilt>0</tilt>
			<gx:fovy>35</gx:fovy>
			<range>7387.309664910698</range>
			<altitudeMode>relativeToGround</altitudeMode>
		</LookAt>
		<styleUrl>#__managed_style_32C2E93E7E365DD391E7</styleUrl>
		<Point>
			<altitudeMode>relativeToGround</altitudeMode>
			<coordinates>2.810181,50.539237,0</coordinates>
		</Point>
	</Placemark>
	<Placemark id="0407FCA7F3365DE67AE6">
		<name>Cuinchy</name>
		<gx:mid>/m/02x83hg</gx:mid>
		<gx:fid>0x47dd24f5a2159a2d:0xb3d9ff0a1ceee9af</gx:fid>
		<LookAt>
			<longitude>2.745495</longitude>
			<latitude>50.5202402</latitude>
			<altitude>0</altitude>
			<heading>0</heading>
			<tilt>0</tilt>
			<gx:fovy>35</gx:fovy>
			<range>7390.290662294921</range>
			<altitudeMode>relativeToGround</altitudeMode>
		</LookAt>
		<styleUrl>#__managed_style_32C2E93E7E365DD391E7</styleUrl>
		<Point>
			<altitudeMode>relativeToGround</altitudeMode>
			<coordinates>2.745438,50.520242,0</coordinates>
		</Point>
	</Placemark>
	<Placemark id="0245DD8EF0365DE7DD17">
		<name>Le Touret</name>
		<gx:mid>/g/1ym82msg6</gx:mid>
		<gx:fid>0x47dd2400337a3323:0x73f61da4ffbe78c4</gx:fid>
		<LookAt>
			<longitude>2.708193</longitude>
			<latitude>50.56243445</latitude>
			<altitude>0</altitude>
			<heading>0</heading>
			<tilt>0</tilt>
			<gx:fovy>35</gx:fovy>
			<range>3180.559486548631</range>
			<altitudeMode>relativeToGround</altitudeMode>
		</LookAt>
		<styleUrl>#__managed_style_32C2E93E7E365DD391E7</styleUrl>
		<Point>
			<altitudeMode>relativeToGround</altitudeMode>
			<coordinates>2.708193,50.562435,0</coordinates>
		</Point>
	</Placemark>
	<Placemark id="06805A5A70365DE86D4C">
		<name>Hinges</name>
		<gx:mid>/m/02z3jkj</gx:mid>
		<gx:fid>0x47dd21f1a9100a13:0x40af13e8163e920</gx:fid>
		<LookAt>
			<longitude>2.62675425</longitude>
			<latitude>50.57476064999999</latitude>
			<altitude>0</altitude>
			<heading>0</heading>
			<tilt>0</tilt>
			<gx:fovy>35</gx:fovy>
			<range>14763.5005895558</range>
			<altitudeMode>relativeToGround</altitudeMode>
		</LookAt>
		<styleUrl>#__managed_style_32C2E93E7E365DD391E7</styleUrl>
		<Point>
			<altitudeMode>relativeToGround</altitudeMode>
			<coordinates>2.626723,50.565838,0</coordinates>
		</Point>
	</Placemark>
	<Placemark id="032E7A2AAE365DF3F684">
		<name>Gorre</name>
		<LookAt>
			<longitude>2.686402682055411</longitude>
			<latitude>50.5356926694738</latitude>
			<altitude>22.03056066941905</altitude>
			<heading>0</heading>
			<tilt>0</tilt>
			<gx:fovy>35</gx:fovy>
			<range>5297.747644970077</range>
			<altitudeMode>absolute</altitudeMode>
		</LookAt>
		<styleUrl>#__managed_style_0D5827E318365DD239D3</styleUrl>
		<Point>
			<coordinates>2.694682627331904,50.53843386720998,18.89654316257011</coordinates>
		</Point>
	</Placemark>
	<Placemark id="00F84E7029365DF46435">
		<name>Le Quesnoy</name>
		<LookAt>
			<longitude>2.686402682055411</longitude>
			<latitude>50.5356926694738</latitude>
			<altitude>22.03056066941905</altitude>
			<heading>0</heading>
			<tilt>0</tilt>
			<gx:fovy>35</gx:fovy>
			<range>5297.747644970077</range>
			<altitudeMode>absolute</altitudeMode>
		</LookAt>
		<styleUrl>#__managed_style_0D5827E318365DD239D3</styleUrl>
		<Point>
			<coordinates>2.687393526409356,50.53298446274285,22.34611574145155</coordinates>
		</Point>
	</Placemark>
	<Placemark id="0C2ACB970A365DFA5977">
		<name>Fme du Roi</name>
		<LookAt>
			<longitude>2.683358809846426</longitude>
			<latitude>50.54521437326195</latitude>
			<altitude>18.74567129141867</altitude>
			<heading>0</heading>
			<tilt>0</tilt>
			<gx:fovy>35</gx:fovy>
			<range>8649.401695415145</range>
			<altitudeMode>absolute</altitudeMode>
		</LookAt>
		<styleUrl>#__managed_style_0D5827E318365DD239D3</styleUrl>
		<Point>
			<coordinates>2.670008580959529,50.54423668508064,18.71473329450979</coordinates>
		</Point>
	</Placemark>
</Document>
</kml>
