<?xml version="1.0" encoding="UTF-8"?>
<kml xmlns="http://www.opengis.net/kml/2.2" xmlns:gx="http://www.google.com/kml/ext/2.2" xmlns:kml="http://www.opengis.net/kml/2.2">
<Document>
	<name>Battle Honours</name>
	<open>1</open>
	<Style id="battle">
      <BalloonStyle>
		<bgColor>ffffaaaa</bgColor>
		<textColor>ff000000</textColor> 
        <text>
        <![CDATA[
		<br/><br/>
		<b><font color="steelblue" size="+2">$[name]</font></b>
		<br/><br/>
		$[description]
		]]>
        </text>
      </BalloonStyle>
		<IconStyle>
			<scale>1.5</scale>
			<Icon>
				<href>https://maps.google.com/mapfiles/kml/paddle/ylw-stars.png</href>
			</Icon>
		</IconStyle>
	</Style>
	<Placemark about="http://dbpedia.org/resource/Battle_of_Blenheim">
		<name>Blenheim (1704)</name>
		<Snippet maxLines="0"></Snippet>
		<description>
		<![CDATA[
		The Battle of Blenheim fought on August 13, 1704 was one of the turning points of the War of the Spanish Succession (1701-14), saving Vienna from the Franco-Bavarian army and preventing the collapse of the Grand Alliance.
		<br/><br/>
		<a style="font-size:small" href="https://www.royalhampshireregiment.org/about-the-museum/timeline/battle-blenheim-1704/">More ...</a>
		]]>
		</description>
		<styleUrl>#battle</styleUrl>
		<Point>
			<coordinates>10.6,48.645,0</coordinates>
		</Point>
	</Placemark>
	<Placemark about="http://dbpedia.org/resource/Battle_of_Ramillies">
		<name>Ramillies (1706)</name>
		<Snippet maxLines="0"></Snippet>
		<description>
		<![CDATA[
		The Battle of Ramillies fought on May 23, 1706 was an overwhelming victory for the Grand Alliance forces of England, Holland and Denmark over the army of King Louis XIV of France during the war of the Spanish Succession (1701-14).
		<br/><br/>
		<a style="font-size:small" href="https://www.royalhampshireregiment.org/about-the-museum/timeline/battle-ramillies-1706/">More ...</a>
		]]>
		</description>
		<styleUrl>#battle</styleUrl>
		<Point>
			<coordinates>4.9128,50.6386,0</coordinates>
		</Point>
	</Placemark>
	<Placemark about="http://dbpedia.org/resource/Battle_of_Oudenarde">
		<name>Oudenaarde (1708)</name>
		<Snippet maxLines="0"></Snippet>
		<description>
		<![CDATA[
		The Battle of Oudenarde was fought on July 11 1708 between the Grand Alliance forces of Britain, Holland and Austria on the one side and those of King Louis XIV of France on the other during the War of the Spanish Succession. It resulted in a crushing victory for the Alliance, the third of the war for its British commander the Duke of Marlborough.
		<br/><br/>
		<a style="font-size:small" href="https://www.royalhampshireregiment.org/about-the-museum/timeline/battle-oudenarde-1708/">More ...</a>
		]]>
		</description>
		<styleUrl>#battle</styleUrl>
		<Point>
			<coordinates>3.62,50.8796,0</coordinates>
		</Point>
	</Placemark>
	<Placemark about="http://dbpedia.org/resource/Battle_of_Malplaquet">
		<name>Malplaquet (1709)</name>
		<Snippet maxLines="0"></Snippet>
		<description>
		<![CDATA[
		The Duke of Marlborough's fourth and final victory of the War of the Spanish Succession came at the Battle of Malplaquet, fought on September 11 1709 between the forces of the Grand Alliance and France.
		<br/><br/>
		<a style="font-size:small" href="https://www.royalhampshireregiment.org/about-the-museum/timeline/the-battle-of-malplaquet/">More ...</a>
		]]>
		</description>
		<styleUrl>#battle</styleUrl>
		<Point>
			<coordinates>3.87639,50.33610000000001,0</coordinates>
		</Point>
	</Placemark>
	<Placemark about="http://dbpedia.org/resource/Battle_of_Dettingen">
		<name>Dettingen (1743)</name>
		<Snippet maxLines="0"></Snippet>
		<description>
		<![CDATA[
		The Battle of Dettingen took place on June 27 1743 on the banks of the River Main in south-west Germany between the so-called Pragmatic Army, comprising 50,000 British, Hanoverian and Austrian troops under King George II, and a 70,000-strong French army. It resulted in victory for the allies and is significant for being the only time in modern history that British troops have been led into battle by a reigning monarch.
		<br/><br/>
		<a style="font-size:small" href="https://www.royalhampshireregiment.org/about-the-museum/timeline/battle-of-dettingen/">More ...</a>
		]]>
		</description>
		<styleUrl>#battle</styleUrl>
		<Point>
			<coordinates>9.018333,50.048889,0</coordinates>
		</Point>
	</Placemark>
	<Placemark about="http://dbpedia.org/resource/Battle_of_Minden">
		<name>Minden (1759)</name>
		<Snippet maxLines="0"></Snippet>
		<description>
		<![CDATA[
		Following a French victory at Bergen in Germany in April 1759, the French Army of 60,000 troops commanded by Marshal Duc Louis de Contades advanced northwards towards Hannover. In an attempt to block this, the Prussian general, Marshal Ferdinand, Duke of Brunswick, resolved to hold the town of Minden astride the road to Hannover and across the river Weser.
		<br/><br/>
		<a style="font-size:small" href="https://www.royalhampshireregiment.org/about-the-museum/timeline/battle-of-minden/">More ...</a>
		]]>
		</description>
		<styleUrl>#battle</styleUrl>
		<Point>
			<coordinates>8.9160539,52.2923549,0</coordinates>
		</Point>
	</Placemark>
	<Placemark about="http://dbpedia.org/resource/Capture_of_Belle_Île">
		<name>Belle Isle (1761)</name>
		<Snippet maxLines="0"></Snippet>
		<description>
		<![CDATA[
		The capture of the French island of Belle Isle, 20 miles off the Brittany coast, was a joint naval/army expedition during the Seven Years War.
		<br/><br/>
		<a style="font-size:small" href="https://www.royalhampshireregiment.org/about-the-museum/timeline/capture-belle-isle/">More ...</a>
		]]>
		</description>
		<styleUrl>#battle</styleUrl>
		<Point>
			<coordinates>-3.1668,47.3321,0</coordinates>
		</Point>
	</Placemark>
	<Placemark about="http://dbpedia.org/resource/Battle_of_Tournay_(1794)">
		<name>Tournay (1794)</name>
		<Snippet maxLines="0"></Snippet>
		<description>
		<![CDATA[
		The Battle of Tournay or Battle of Tournai or Battle of Pont-à-Chin (22 May 1794) saw Republican French forces led by Jean-Charles Pichegru attack Coalition forces under Emperor Francis II and Prince Josias of Saxe-Coburg-Saalfeld. After a bitter all-day struggle, Coalition troops recaptured a few key positions including Pont-à-Chin, forcing the French to retreat.
		<br/><br/>
		]]>
		</description>
		<styleUrl>#battle</styleUrl>
		<Point>
			<coordinates>3.379139,50.6127324,0</coordinates>
		</Point>
	</Placemark>
	<Placemark about="http://dbpedia.org/resource/Battle_of_Barrosa">
		<name>Barrosa (1811)</name>
		<Snippet maxLines="0"></Snippet>
		<description>
		<![CDATA[
		The 2/67th's performance in Spain earned it the battle honours of 'Barrosa' and 'Peninsula', thereby contributing something outstanding to its short history. The gallantry displayed at Barrosa was also recognised by the award of gold medals to all commanders of units and heads of departments, among them Lieutenant Colonel Prevost. His medal can be seen in the Royal Hampshire Regimental Museum.
		<br/><br/>
		<a style="font-size:small" href="https://www.royalhampshireregiment.org/about-the-museum/timeline/267th-cadiz-barossa/">More ...</a>
		]]>
		</description>
		<styleUrl>#battle</styleUrl>
		<Point>
			<coordinates>-6.1765,36.3719,0</coordinates>
		</Point>
	</Placemark>
	<Placemark about="http://dbpedia.org/resource/Battle_of_Taku_Forts_(1860)">
		<name>Taku Forts (1860)</name>
		<Snippet maxLines="0"></Snippet>
		<description>
		<![CDATA[
		On 28 March 1860 the Chinese rejected an ultimatum from the British and French to allow safe passage through their ports as agreed in a trade treaty signed in 1858. Among other things, this would have allowed the British to continue the opium trade in China. Consequently, the British government ordered an attack on the Taku Forts.
		<br/><br/>
		<a style="font-size:small" href="https://www.royalhampshireregiment.org/about-the-museum/timeline/67th-regt-assault-taku-forts-china/">More ...</a>
		]]>
		</description>
		<styleUrl>#battle</styleUrl>
		<Point>
			<coordinates>117.7098707,38.9771158,0</coordinates>
		</Point>
	</Placemark>
	<Placemark about="http://dbpedia.org/resource/Battle_of_Palikaor">
		<name>Pekin (1860)</name>
		<Snippet maxLines="0"></Snippet>
		<styleUrl>#battle</styleUrl>
		<Point>
			<coordinates>116.6145435844927,39.90660444506591,0</coordinates>
		</Point>
	</Placemark>
</Document>
</kml>
